[Satellite]
VERSION=1.1
NAME=SL-16 R/B
NICKNAME=SL-16 R/B
TLE1=1 23405U 94077B   18020.69666769 -.00000269  00000-0 -11403-3 0  9998
TLE2=2 23405  70.9842 118.0857 0003988 312.5412  47.5373 14.15202077196039
